QIANFAN-1               
1 60379U 24140A   25263.96258103  .00000093  00000+0  12464-3 0  9999
2 60379  88.9781 307.8609 0019727  94.7489 265.5916 13.50973009 56178
QIANFAN-2               
1 60380U 24140B   25263.91716556  .00000081  00000+0  10625-3 0  9991
2 60380  88.9767 307.7163 0014728  71.2487 289.0261 13.50965112 56228
QIANFAN-3               
1 60381U 24140C   25263.92545003  .00000095  00000+0  12802-3 0  9994
2 60381  88.9760 307.8542 0016040  81.9253 278.3717 13.50965235 56135
QIANFAN-4               
1 60382U 24140D   25263.97492208  .00000119  00000+0  16498-3 0  9990
2 60382  88.9785 307.7260 0015010  73.3288 286.9510 13.50972509 56260
QIANFAN-5               
1 60383U 24140E   25263.95018861  .00000088  00000+0  11682-3 0  9993
2 60383  88.9759 307.8773 0017396  91.4522 268.8622 13.50968252 56121
QIANFAN-6               
1 60384U 24140F   25263.97078753  .00000102  00000+0  13860-3 0  9999
2 60384  88.9786 307.5993 0015212  78.3642 281.9216 13.50964296 56326
QIANFAN-7               
1 60385U 24140G   25263.96506090  .00000457  00000+0  18013-3 0  9997
2 60385  88.9787 303.4604 0013076 320.0075  40.0155 14.27552420 58588
QIANFAN-8               
1 60386U 24140H   25263.97897919  .00000092  00000+0  12418-3 0  9990
2 60386  88.9788 307.8345 0018691  79.7285 280.5973 13.50968160 56178
